OBJECT_NAME,OBJECT_ID,EPOCH,MEAN_MOTION,ECCENTRICITY,INCLINATION,RA_OF_ASC_NODE,ARG_OF_PERICENTER,MEAN_ANOMALY,EPHEMERIS_TYPE,CLASSIFICATION_TYPE,NORAD_CAT_ID,ELEMENT_SET_NO,REV_AT_EPOCH,BSTAR,MEAN_MOTION_DOT,MEAN_MOTION_DDOT
SUOMI NPP,2011-061A,2026-06-09T14:05:23.074368,14.19515805,.00019528,98.7953,101.5151,24.0339,336.0928,0,U,37849,999,75736,.50307332E-4,.62E-6,0
YAOGAN-12,2011-066B,2026-06-09T14:18:56.722176,15.26508702,.0008101,97.1151,199.5225,248.6682,111.3693,0,U,37875,999,81088,.25287033E-3,.6539E-4,0
BEIDOU-2 M4,2012-018B,2026-06-09T14:29:07.108800,1.86229817,.00111465,55.6651,304.3456,277.0468,82.8157,0,U,38251,999,9580,0,-.6E-6,0
ARIRANG-3 (KOMPSAT-3),2012-025B,2026-06-09T15:24:45.186624,14.62199581,.00063664,98.1174,118.2326,128.6589,231.5184,0,U,38338,999,75024,.88460397E-4,.399E-5,0
METOP-B,2012-049A,2026-06-09T12:24:25.832160,14.21430608,.00026809,98.6507,212.1690,37.6263,322.5102,0,U,38771,999,71217,.58235303E-4,.84E-6,0
SJ-9A,2012-056A,2026-06-09T11:38:58.158240,14.85460576,.00240085,97.6704,132.7159,283.7806,76.0738,0,U,38860,999,69844,.14937298E-3,.1242E-4,0
COSMOS 2484 (RODNIK-S 6),2013-001C,2026-06-09T13:54:44.618112,12.42938878,.00271689,82.5017,226.6219,52.8073,307.5481,0,U,39059,999,60761,.58271523E-4,.18E-6,0
SARAL,2013-009A,2026-06-09T11:58:50.357280,14.32854038,.00011288,98.5558,347.1641,347.5084,12.6072,0,U,39086,999,69450,.45383349E-4,.8E-6,0
STRAND-1,2013-009E,2026-06-09T11:12:48.119040,14.37158714,.0007447,98.3920,340.8917,251.7125,108.3252,0,U,39090,999,69595,.10495278E-3,.269E-5,0
BRITE-AUSTRIA,2013-009F,2026-06-09T11:26:32.800128,14.36539039,.00089673,98.3993,340.1036,262.5738,97.4429,0,U,39091,999,69594,.69667502E-4,.162E-5,0
GAOFEN-1,2013-018A,2026-06-09T14:36:23.058144,14.76527238,.00158783,97.9092,232.8305,293.2871,66.6667,0,U,39150,999,70712,-.23941889E-4,-.218E-5,0
NEE-01 PEGASO,2013-018B,2026-06-09T08:39:16.297920,14.93624676,.00125229,98.1215,304.2532,183.6303,176.4827,0,U,39151,999,70953,.24707469E-3,.2551E-4,0
PROBA-V,2013-021A,2026-06-09T12:40:53.511168,14.23595384,.0004808,98.3581,139.5133,141.7591,218.3931,0,U,39159,999,68002,.50331852E-4,.74E-6,0
ARIRANG-5 (KOMPSAT-5),2013-042A,2026-06-08T23:38:58.020000,15.04559791,.0004248,97.6218,346.8017,139.4546,220.6997,0,U,39227,999,70262,.13610837E-3,.1848E-4,0
GONETS-M 5,2013-048A,2026-06-09T15:05:20.270976,12.42891188,.0015803,82.4837,348.0958,227.7780,132.1959,0,U,39249,999,57794,-.61876425E-3,-.76E-6,0
GONETS-M 7,2013-048C,2026-06-09T14:12:11.731680,12.42914283,.00165867,82.4904,351.0372,229.3190,130.6449,0,U,39251,999,57789,-.11964437E-3,-.7E-7,0
FENGYUN 3C,2013-052A,2026-06-09T14:57:15.251616,14.15753308,.00156041,98.4975,134.8454,48.2961,311.9546,0,U,39260,999,65749,.6316245E-4,.83E-6,0
CASSIOPE,2013-055A,2026-06-09T11:37:38.102592,15.24483794,.0295286,80.9146,76.0689,88.2680,275.2346,0,U,39265,999,66649,.46184366E-3,.41911E-3,-.576215E-6
APRIZESAT 7,2013-066A,2026-06-09T10:32:18.517344,14.91547790,.00344876,97.7706,113.7706,235.7075,124.0877,0,U,39416,999,68007,.96998536E-4,.925E-5,0
ZACUBE-1 (TSHEPISOSAT),2013-066B,2026-06-09T11:24:15.748128,15.01140367,.00400693,97.8090,122.7702,274.7996,84.8653,0,U,39417,999,67957,.23849308E-3,.3043E-4,0
APRIZESAT 8,2013-066K,2026-06-09T09:45:11.479968,14.87637346,.00447923,97.8218,107.9831,312.9384,46.8078,0,U,39425,999,67851,.11020153E-3,.963E-5,0
