SUOMI NPP               
1 37849U 11061A   26160.58707262  .00000062  00000+0  50307-4 0  9998
2 37849  98.7953 101.5151 0001952  24.0339 336.0928 14.19515805757364
YAOGAN-12               
1 37875U 11066B   26160.59648984  .00006539  00000+0  25287-3 0  9991
2 37875  97.1151 199.5225 0008101 248.6682 111.3693 15.26508702810880
BEIDOU-2 M4             
1 38251U 12018B   26160.60355450 -.00000060  00000+0  00000+0 0  9999
2 38251  55.6651 304.3456 0011146 277.0468  82.8157  1.86229817 95808
ARIRANG-3 (KOMPSAT-3)   
1 38338U 12025B   26160.64218966  .00000399  00000+0  88460-4 0  9992
2 38338  98.1174 118.2326 0006366 128.6589 231.5184 14.62199581750248
METOP-B                 
1 38771U 12049A   26160.51696565  .00000084  00000+0  58235-4 0  9998
2 38771  98.6507 212.1690 0002680  37.6263 322.5102 14.21430608712179
SJ-9A                   
1 38860U 12056A   26160.48539535  .00001242  00000+0  14937-3 0  9991
2 38860  97.6704 132.7159 0024008 283.7806  76.0738 14.85460576698444
COSMOS 2484 (RODNIK-S 6)
1 39059U 13001C   26160.57968308  .00000018  00000+0  58272-4 0  9998
2 39059  82.5017 226.6219 0027168  52.8073 307.5481 12.42938878607618
SARAL                   
1 39086U 13009A   26160.49919395  .00000080  00000+0  45383-4 0  9997
2 39086  98.5558 347.1641 0001128 347.5084  12.6072 14.32854038694507
STRAND-1                
1 39090U 13009E   26160.46722360  .00000269  00000+0  10495-3 0  9997
2 39090  98.3920 340.8917 0007447 251.7125 108.3252 14.37158714695957
BRITE-AUSTRIA           
1 39091U 13009F   26160.47676852  .00000162  00000+0  69668-4 0  9992
2 39091  98.3993 340.1036 0008967 262.5738  97.4429 14.36539039695946
GAOFEN-1                
1 39150U 13018A   26160.60860021 -.00000218  00000+0 -23942-4 0  9995
2 39150  97.9092 232.8305 0015878 293.2871  66.6667 14.76527238707129
NEE-01 PEGASO           
1 39151U 13018B   26160.36060530  .00002551  00000+0  24707-3 0  9995
2 39151  98.1215 304.2532 0012522 183.6303 176.4827 14.93624676709539
PROBA-V                 
1 39159U 13021A   26160.52839712  .00000074  00000+0  50332-4 0  9993
2 39159  98.3581 139.5133 0004808 141.7591 218.3931 14.23595384680023
ARIRANG-5 (KOMPSAT-5)   
1 39227U 13042A   26159.98539375  .00001848  00000+0  13611-3 0  9990
2 39227  97.6218 346.8017 0004248 139.4546 220.6997 15.04559791702625
GONETS-M 5              
1 39249U 13048A   26160.62870684 -.00000076  00000+0 -61876-3 0  9994
2 39249  82.4837 348.0958 0015803 227.7780 132.1959 12.42891188577944
GONETS-M 7              
1 39251U 13048C   26160.59180245 -.00000007  00000+0 -11964-3 0  9997
2 39251  82.4904 351.0372 0016586 229.3190 130.6449 12.42914283577891
FENGYUN 3C              
1 39260U 13052A   26160.62309319  .00000083  00000+0  63162-4 0  9991
2 39260  98.4975 134.8454 0015604  48.2961 311.9546 14.15753308657496
CASSIOPE                
1 39265U 13055A   26160.48446878  .00041911 -57621-6  46184-3 0  9993
2 39265  80.9146  76.0689 0295286  88.2680 275.2346 15.24483794666492
APRIZESAT 7             
1 39416U 13066A   26160.43910321  .00000925  00000+0  96999-4 0  9998
2 39416  97.7706 113.7706 0034487 235.7075 124.0877 14.91547790680078
ZACUBE-1 (TSHEPISOSAT)  
1 39417U 13066B   26160.47518227  .00003043  00000+0  23849-3 0  9999
2 39417  97.8090 122.7702 0040069 274.7996  84.8653 15.01140367679579
APRIZESAT 8             
1 39425U 13066K   26160.40638287  .00000963  00000+0  11020-3 0  9996
2 39425  97.8218 107.9831 0044792 312.9384  46.8078 14.87637346678514
